satname,norad_id,inclination_deg,eccentricity,mean_motion_rev_per_day,perigee_km,apogee_km,l1,l2
STARLINK-1225,45187,53.1548,0.0002241,15.31905115,468.59392998195653,471.6633226356689,1 45187U 20012K   26120.39319640  .00066940  00000+0  21358-2 0  9991,2 45187  53.1548 159.3799 0002241  36.5278 323.5876 15.31905115342853
STARLINK-1230,45189,53.1555,0.0002782,15.31855602,468.3709644738583,472.1814215744562,1 45189U 20012M   26120.40262302  .00046139  00000+0  14821-2 0  9992,2 45189  53.1555 159.3907 0002782  41.9376 318.1838 15.31855602340089
STARLINK-1234,45190,53.0411,0.0008901,15.69529416,354.24572971203634,366.2413947889536,1 45190U 20012N   26120.84052255  .00078300  00000+0  64857-3 0  9996,2 45190  53.0411  68.7599 0008901  93.8330 266.3704 15.69529416344055
STARLINK-1269,45197,53.1551,0.0002731,15.31914513,468.2303640611344,471.97087144795205,1 45197U 20012V   26120.33332816  .00042260  00000+0  13567-2 0  9998,2 45197  53.1551 159.5641 0002731  32.3147 327.8021 15.31914513342827
STARLINK-1154,45198,53.0431,0.000402,15.54281789,401.5146679689342,406.96770002886933,1 45198U 20012W   26120.25819979  .00099096  00000+0  14788-2 0  9995,2 45198  53.0431 122.4111 0004020 351.2066   8.8872 15.54281789343290
STARLINK-1199,45201,53.1564,0.0002398,15.31797197,468.8079801194708,472.09256257480865,1 45201U 20012Z   26120.30377195  .00049168  00000+0  15809-2 0  9995,2 45201  53.1564 143.9594 0002398  56.3294 303.7936 15.31797197343061
STARLINK-1209,45206,53.042,0.0012093,15.60311674,378.57528229437594,394.9368526673843,1 45206U 20012AE  26120.90020838  .00120722  00000+0  14293-2 0  9997,2 45206  53.0420  80.6783 0012093  82.2479 277.9906 15.60311674343040
STARLINK-1231,45212,53.0392,0.0004075,15.25233124,487.28669573216666,492.88429706673196,1 45212U 20012AL  26120.44522801  .00024615  00000+0  97684-3 0  9990,2 45212  53.0392 137.2454 0004075 340.7187  19.3655 15.25233124343119
STARLINK-1271,45217,53.1566,0.0002808,15.3170062,468.8149828972455,472.6613111798224,1 45217U 20012AR  26120.49923286  .00052472  00000+0  16907-2 0  9992,2 45217  53.1566 143.1961 0002808  45.5513 314.5718 15.31700620343096
STARLINK-1191,45222,53.1564,0.0005213,15.3543289,456.07046402265587,463.19952510418625,1 45222U 20012AW  26120.96491608  .00052680  00000+0  15085-2 0  9995,2 45222  53.1564 115.0630 0005213  53.8825 306.2660 15.35432890343530
STARLINK-1212,45223,53.0417,0.0005922,15.62317212,376.9627170207723,384.9681979714305,1 45223U 20012AX  26120.96303174  .00121935  00000+0  13393-2 0  9996,2 45223  53.0417  96.4841 0005922  28.1668 331.9665 15.62317212343787
STARLINK-1215,45225,53.155,0.0002701,15.32058826,467.82096954303324,471.52015518822463,1 45225U 20012AZ  26120.95930036  .00047563  00000+0  15175-2 0  9994,2 45225  53.1550 115.3655 0002701  70.9838 289.1456 15.32058826343487
STARLINK-1221,45227,53.067,0.0003378,15.43692515,432.92101653479676,437.52412225988246,1 45227U 20012BB  26120.92791630  .00019426  00000+0  43197-3 0  9991,2 45227  53.0670  21.7203 0003378 139.8534 220.2722 15.43692515344775
STARLINK-1222,45228,53.0535,9.52e-05,15.5267683,408.26808944056484,409.5603439922279,1 45228U 20012BC  26120.61769939  .00036845  00000+0  59219-3 0  9991,2 45228  53.0535  93.2389 0000952  37.7135 322.3941 15.52676830343681
STARLINK-1226,45229,53.1565,0.000342,15.40032048,443.6807829433146,448.34850266699414,1 45229U 20012BD  26120.67608402  .00058245  00000+0  14353-2 0  9992,2 45229  53.1565 115.0175 0003420  60.5135 299.6210 15.40032048343408
STARLINK-1227,45230,53.155,0.0004399,15.40129386,442.72529231399676,448.72892795809366,1 45230U 20012BE  26120.36449332  .00059721  00000+0  14662-2 0  9998,2 45230  53.1550 116.6341 0004399  59.8768 300.2673 15.40129386343476
STARLINK-1246,45235,53.155,0.0002954,15.32050768,467.6717241270044,471.71742302067196,1 45235U 20012BK  26120.53838040  .00039709  00000+0  12705-2 0  9990,2 45235  53.1550 158.2677 0002954  57.2489 302.8797 15.32050768342913
STARLINK-1270,45237,53.0436,0.0005259,15.55718846,396.4991815979283,403.62849323872433,1 45237U 20012BM  26120.95496350  .00114845  00000+0  16213-2 0  9995,2 45237  53.0436  96.1876 0005259  48.6342 311.5120 15.55718846343787
STARLINK-1279,45360,53.0373,0.0007949,15.68826348,356.8986721545316,367.61454991735627,1 45360U 20019A   26121.00002315 -.00113306  00000+0 -97613-3 0  9997,2 45360  53.0373 202.7598 0007949 344.5401 326.7953 15.68826348  5915
STARLINK-1301,45361,53.0398,0.0005553,15.71603923,350.5739819322871,358.0510403593662,1 45361U 20019B   26120.53360781  .00068865  00000+0  52496-3 0  9996,2 45361  53.0398 208.3476 0005553   8.3570 351.7538 15.71603923338744
STARLINK-1262,45366,53.1548,8.66e-05,15.30941027,472.4100801251989,473.59669764055343,1 45366U 20019G   26120.67970260  .00053830  00000+0  17753-2 0  9997,2 45366  53.1548 283.7936 0000866 317.6893  42.4041 15.30941027337715
STARLINK-1273,45367,53.047,0.0003556,15.51923652,408.695706085683,413.5242185252746,1 45367U 20019H   26120.63135683  .00078798  00000+0  12854-2 0  9993,2 45367  53.0470 266.2572 0003556 263.9364  96.1240 15.51923652337945
STARLINK-1277,45369,53.0454,0.0004804,15.58008484,390.1683565300591,396.67446985345487,1 45369U 20019K   26120.80416440  .00046399  00000+0  61066-3 0  9999,2 45369  53.0454 261.2131 0004804 254.6709 105.3772 15.58008484338030
STARLINK-1281,45370,53.1596,0.0001581,15.31983874,468.81123858699266,470.97658596145357,1 45370U 20019L   26120.84495032  .00057935  00000+0  18478-2 0  9995,2 45370  53.1596 282.8928 0001581 318.8425  41.2457 15.31983874337741
STARLINK-1300,45374,53.159,0.0001803,15.32108428,468.28813003047526,470.7573961410444,1 45374U 20019Q   26120.86575844  .00054976  00000+0  17479-2 0  9993,2 45374  53.1590 282.7889 0001803 339.9497  20.1433 15.32108428337749
STARLINK-1302,45375,53.0471,0.0002439,15.6306128,377.17223035143525,380.4682740990711,1 45375U 20019R   26121.00002315  .00114055  00000+0  12192-2 0  9991,2 45375  53.0471 257.5585 0002439 291.6525 226.7225 15.63061280  5835
STARLINK-1304,45376,53.046,0.0003503,15.57159862,393.5084966787472,398.25437399454495,1 45376U 20019S   26120.84464359  .00102518  00000+0  13752-2 0  9997,2 45376  53.0460 258.1757 0003503 286.5871  73.4755 15.57159862338079
STARLINK-1305,45377,53.0393,0.0008667,15.63680144,371.18260620226647,382.8920253612432,1 45377U 20019T   26121.00002315  .00092945  00000+0  97181-3 0  9998,2 45377  53.0393 238.0545 0008667 307.7607 164.2795 15.63680144  5956
STARLINK-1319,45379,53.0424,0.0002777,15.71736282,352.06504104193573,355.8040335737578,1 45379U 20019V   26120.79311215  .00073004  00000+0  55319-3 0  9999,2 45379  53.0424 232.6524 0002777 320.7335  39.3481 15.71736282338439
STARLINK-1266,45383,53.0456,0.000378,15.53661853,403.48082826979044,408.6096700501548,1 45383U 20019Z   26120.64217237  .00080784  00000+0  12373-2 0  9992,2 45383  53.0456 243.8058 0003780 271.7125  88.3452 15.53661853338255
STARLINK-1267,45384,53.0464,0.0005333,15.5933515,385.97086423646215,393.1893112822663,1 45384U 20019AA  26121.00002315  .00063541  00000+0  79140-3 0  9991,2 45384  53.0464 234.2622 0005333 341.0591 289.2189 15.59335150  5894
STARLINK-1272,45386,53.0417,0.0007143,15.65685279,366.4475254652152,376.08972634238125,1 45386U 20019AC  26120.45745435  .00053820  00000+0  52479-3 0  9993,2 45386  53.0417 217.1300 0007143 328.0872  31.9709 15.65685279338611
STARLINK-1274,45387,53.0254,0.0008096,15.55549676,395.0672303593028,406.043288866068,1 45387U 20019AD  26120.51674265  .00082776  00000+0  11816-2 0  9994,2 45387  53.0254 213.5823 0008096 354.2166   5.8749 15.55549676338664
STARLINK-1280,45388,53.0411,0.000409,15.72434242,349.1896674418176,354.6948722845664,1 45388U 20019AE  26120.69350423  .00073782  00000+0  54263-3 0  9992,2 45388  53.0411 225.7231 0004090 336.8562  23.2270 15.72434242338501
STARLINK-1283,45389,53.0417,0.0003013,15.66907389,365.72616355239825,369.7912403023802,1 45389U 20019AF  26120.56993413  .00050946  00000+0  47390-3 0  9991,2 45389  53.0417 216.0191 0003013   5.8703 354.2347 15.66907389338647
STARLINK-1284,45390,53.0422,0.0003804,15.63757021,374.24633250895386,379.3855006879021,1 45390U 20019AG  26121.00002315  .01079593  00000+0  10297-1 0  9999,2 45390  53.0422 237.4865 0003804 269.8396  43.8968 15.63757021  5901
STARLINK-1297,45395,53.0432,0.0005303,15.64544631,370.96776243702516,378.12966090282225,1 45395U 20019AM  26120.79426820  .00096744  00000+0  97801-3 0  9994,2 45395  53.0432 237.0993 0005303 280.2911  79.7505 15.64544631337546
STARLINK-1307,45397,53.0543,7.58e-05,15.54156854,404.090526890438,405.1187905258985,1 45397U 20019AP  26120.70898249  .00037278  00000+0  56783-3 0  9996,2 45397  53.0543 240.3375 0000758  38.0532 322.0532 15.54156854338134
STARLINK-1255,45399,53.0377,0.0005495,15.61104395,380.74970417302393,388.18180460009535,1 45399U 20019AR  26120.68869497  .00039505  00000+0  46356-3 0  9998,2 45399  53.0377 210.6038 0005495 342.3360  17.7460 15.61104395338533
STARLINK-1260,45404,53.1573,0.0003491,15.34422951,460.2469123344481,465.02313936289556,1 45404U 20019AW  26120.82338905  .00032357  00000+0  96384-3 0  9990,2 45404  53.1573 246.4246 0003491 313.3961  46.6750 15.34422951337966
STARLINK-1263,45405,53.1592,0.0002587,15.32023336,468.0047617815917,471.54787213178497,1 45405U 20019AX  26120.72979126  .00054484  00000+0  17370-2 0  9998,2 45405  53.1592 247.4179 0002587 353.1812   6.9154 15.32023336337943
STARLINK-1265,45406,53.1581,0.0002849,15.34639147,460.0437843259042,463.9412901362193,1 45406U 20019AY  26120.75905857  .00021297  00000+0  63481-3 0  9993,2 45406  53.1581 246.8043 0002849 310.2797  49.7957 15.34639147337954
STARLINK-1278,45408,53.0417,0.0005061,15.65235905,369.1438573589203,375.9769132523252,1 45408U 20019BA  26120.71307209  .00053370  00000+0  53019-3 0  9991,2 45408  53.0417 236.6676 0005061 310.6299  49.4275 15.65235905338085
